{
    "links": {
        "self": "http://www.neowsapp.com/rest/v1/neo/54091653?api_key=iIulBulltgU6a56xZRHN4H3l9WmuAYTsLGpBGhQ2"
    },
    "id": "54091653",
    "neo_reference_id": "54091653",
    "name": "(2020 WD2)",
    "designation": "2020 WD2",
    "nasa_jpl_url": "http://ssd.jpl.nasa.gov/sbdb.cgi?sstr=54091653",
    "absolute_magnitude_h": 27.689,
    "estimated_diameter": {
        "kilometers": {
            "estimated_diameter_min": 0.0077046866,
            "estimated_diameter_max": 0.0172282029
        },
        "meters": {
            "estimated_diameter_min": 7.7046865785,
            "estimated_diameter_max": 17.2282029349
        },
        "miles": {
            "estimated_diameter_min": 0.0047874688,
            "estimated_diameter_max": 0.0107051057
        },
        "feet": {
            "estimated_diameter_min": 25.2778439143,
            "estimated_diameter_max": 56.5229773171
        }
    },
    "is_potentially_hazardous_asteroid": false,
    "close_approach_data": [
        {
            "close_approach_date": "2014-08-06",
            "close_approach_date_full": "2014-Aug-06 03:48",
            "epoch_date_close_approach": 1407296880000,
            "relative_velocity": {
                "kilometers_per_second": "15.0241091933",
                "kilometers_per_hour": "54086.7930958778",
                "miles_per_hour": "33607.4298544914"
            },
            "miss_distance": {
                "astronomical": "0.252673799",
                "lunar": "98.290107811",
                "kilometers": "37799462.13520813",
                "miles": "23487496.641126994"
            },
            "orbiting_body": "Earth"
        },
        {
            "close_approach_date": "2020-11-10",
            "close_approach_date_full": "2020-Nov-10 15:22",
            "epoch_date_close_approach": 1605021720000,
            "relative_velocity": {
                "kilometers_per_second": "7.8249749361",
                "kilometers_per_hour": "28169.9097700175",
                "miles_per_hour": "17503.6864345978"
            },
            "miss_distance": {
                "astronomical": "0.0184526577",
                "lunar": "7.1780838453",
                "kilometers": "2760478.287759099",
                "miles": "1715281.6693456062"
            },
            "orbiting_body": "Earth"
        },
        {
            "close_approach_date": "2022-12-02",
            "close_approach_date_full": "2022-Dec-02 08:39",
            "epoch_date_close_approach": 1669970340000,
            "relative_velocity": {
                "kilometers_per_second": "14.8040732254",
                "kilometers_per_hour": "53294.6636115448",
                "miles_per_hour": "33115.2313979624"
            },
            "miss_distance": {
                "astronomical": "0.2387950582",
                "lunar": "92.8912776398",
                "kilometers": "35723232.073246034",
                "miles": "22197387.1037979092"
            },
            "orbiting_body": "Earth"
        },
        {
            "close_approach_date": "2024-12-14",
            "close_approach_date_full": "2024-Dec-14 14:50",
            "epoch_date_close_approach": 1734187800000,
            "relative_velocity": {
                "kilometers_per_second": "21.92324157",
                "kilometers_per_hour": "78923.6696521138",
                "miles_per_hour": "49040.0990680037"
            },
            "miss_distance": {
                "astronomical": "0.4770441142",
                "lunar": "185.5701604238",
                "kilometers": "71364783.380356754",
                "miles": "44344020.1330170452"
            },
            "orbiting_body": "Earth"
        }
    ],
    "orbital_data": {
        "orbit_id": "3",
        "orbit_determination_date": "2020-11-23 05:21:58",
        "first_observation_date": "2020-11-19",
        "last_observation_date": "2020-11-23",
        "data_arc_in_days": 4,
        "observations_used": 28,
        "orbit_uncertainty": "8",
        "minimum_orbit_intersection": ".0106891",
        "jupiter_tisserand_invariant": "4.253",
        "epoch_osculation": "2459173.5",
        "eccentricity": ".4057638312298615",
        "semi_major_axis": "1.607012225452397",
        "inclination": "1.666250400869236",
        "ascending_node_longitude": "66.52839679465714",
        "orbital_period": "744.0929639454419",
        "perihelion_distance": ".9549447880196065",
        "perihelion_argument": "308.6891365336103",
        "aphelion_distance": "2.259079662885187",
        "perihelion_time": "2459137.396906595076",
        "mean_anomaly": "17.46705620875299",
        "mean_motion": ".4838105148732408",
        "equinox": "J2000",
        "orbit_class": {
            "orbit_class_type": "APO",
            "orbit_class_description": "Near-Earth asteroid orbits which cross the Earth’s orbit similar to that of 1862 Apollo",
            "orbit_class_range": "a (semi-major axis) > 1.0 AU; q (perihelion) < 1.017 AU"
        }
    },
    "is_sentry_object": false
}